0 FENGYUN 1C DEB
1 30226U 99025WK  13282.18742922  .00019634  00000-0  30903-2 0   316
2 30226 098.9964 113.2573 0117204 126.5018 300.2720 14.67984981356678
0 FENGYUN 1C DEB
1 30226U 99025WK  13283.48590578  .00017711  00000-0  27869-2 0   342
2 30226 098.9965 114.6839 0117142 122.4659 322.5122 14.68026656356867
0 FENGYUN 1C DEB
1 30226U 99025WK  13283.81085750  .00027964  00000-0  43967-2 0   337
2 30226 098.9966 115.0389 0116921 121.5041 239.8149 14.68038097356919
0 FENGYUN 1C DEB
1 30226U 99025WK  13285.81040414  .00013690  00000-0  21551-2 0   366
2 30226 098.9960 117.2378 0117085 115.3038 007.4646 14.68080631357209
0 FENGYUN 1C DEB
1 30226U 99025WK  13286.83307049  .00013636  00000-0  21455-2 0   373
2 30226 098.9956 118.3613 0117078 112.1397 012.4067 14.68103832357351
0 FENGYUN 1C DEB
1 30226U 99025WK  13287.85530064  .00018458  00000-0  28970-2 0   388
2 30226 098.9952 119.4846 0117025 108.9455 015.1668 14.68134300357505
0 FENGYUN 1C DEB
1 30226U 99025WK  13289.27236434  .00018592  00000-0  29148-2 0   398
2 30226 098.9946 121.0419 0117015 104.5019 304.9670 14.68180961357708
0 FENGYUN 1C DEB
1 30226U 99025WK  13290.49560884  .00018221  00000-0  28549-2 0   408
2 30226 098.9944 122.3861 0116964 100.7450 290.4321 14.68215602357882
0 FENGYUN 1C DEB
1 30226U 99025WK  13291.52741044  .00015467  00000-0  24245-2 0   411
2 30226 098.9943 123.5200 0116926 097.5590 344.1649 14.68242491358042
0 FENGYUN 1C DEB
1 30226U 99025WK  13292.83040648  .00014471  00000-0  22675-2 0   428
2 30226 098.9944 124.9519 0116906 093.5407 031.4642 14.68276496358234
0 FENGYUN 1C DEB
1 30226U 99025WK  13293.85281284  .00014958  00000-0  23421-2 0   435
2 30226 098.9945 126.0756 0116916 090.3630 035.7681 14.68297877358387
0 FENGYUN 1C DEB
1 30226U 99025WK  13295.20334823  .00015638  00000-0  24465-2 0   440
2 30226 098.9947 127.5599 0116891 086.2224 334.5947 14.68326025358579
